IRIDIUM 116             
1 43072U 17083C   25131.90647282  .00000027  00000+0  26225-5 0  9995
2 43072  86.3942 129.7760 0002613  89.4056 270.7439 14.34217787386650
IRIDIUM 130             
1 43073U 17083D   25131.73522257  .00000039  00000+0  68393-5 0  9996
2 43073  86.3950 130.0837 0002630  96.0090 264.1405 14.34217686386570
IRIDIUM 151             
1 43074U 17083E   25131.91915742  .00000238  00000+0  77849-4 0  9998
2 43074  86.3944 129.8194 0002609  89.5657 270.5837 14.34217835386620
IRIDIUM 134             
1 43075U 17083F   25131.74790712  .00000050  00000+0  10922-4 0  9999
2 43075  86.3944 129.8935 0002492  96.6138 263.5341 14.34217963386564
IRIDIUM 137             
1 43076U 17083G   25131.69082251  .00000110  00000+0  32318-4 0  9996
2 43076  86.3945 130.0018 0002907  82.4491 277.7035 14.34217685386623
IRIDIUM 141             
1 43077U 17083H   25131.96355200  .00000128  00000+0  38755-4 0  9994
2 43077  86.3941 129.7414 0002050  89.5893 270.5538 14.34218442386663
IRIDIUM 153             
1 43078U 17083J   25131.84596263  .00000111  00000+0  32570-4 0  9999
2 43078  86.3937  98.2616 0001827  91.7989 268.3416 14.34216923387758
IRIDIUM 131             
1 43079U 17083K   25131.74156387  .00000051  00000+0  10982-4 0  9994
2 43079  86.3948 129.9935 0002215  85.7731 274.3717 14.34217691386569
